ONEWEB-0504             
1 54122U 22138K   25273.75900494  .00000059  00000+0  11481-3 0  9998
2 54122  87.9289 356.5573 0001515  96.8002 263.3303 13.19726769142615
ONEWEB-0505             
1 54123U 22138L   25273.75586251  .00000030  00000+0  42714-4 0  9993
2 54123  87.9290 356.5460 0001314 107.3302 252.7974 13.19725702142590
ONEWEB-0506             
1 54124U 22138M   25273.65475588  .00000101  00000+0  22051-3 0  9993
2 54124  87.9288 356.5636 0001644 101.4853 258.6464 13.19727064142575
ONEWEB-0507             
1 54125U 22138N   25273.75110943  .00000010  00000+0 -76502-5 0  9998
2 54125  87.9272 356.5923 0001678 105.9247 254.2071 13.19726486142631
ONEWEB-0508             
1 54126U 22138P   25273.74794286  .00000110  00000+0  24337-3 0  9993
2 54126  87.9282 356.5789 0001558 110.0793 250.0507 13.19727350142610
ONEWEB-0509             
1 54127U 22138Q   25273.72269095  .00000088  00000+0  18640-3 0  9991
2 54127  87.9289 356.5482 0001712 102.0349 258.0976 13.19726892142582
ONEWEB-0510             
1 54128U 22138R   25273.66449088  .00000041  00000+0  67693-4 0  9999
2 54128  87.9243 326.1892 0002416  91.7789 268.3621 13.20772046145022
ONEWEB-0511             
1 54129U 22138S   25273.71951264  .00000094  00000+0  20367-3 0  9994
2 54129  87.9287 356.5532 0001712  91.7136 268.4192 13.19728047142619
